STARLINK-4390
1 53653U 22105F   26092.83335647 -.00020680  00000+0 -12113-2 0  9997
2 53653  97.6029 333.9777 0002124  78.4400 272.3214 15.11815503  5756
STARLINK-4334
1 53665U 22105T   26092.69551170  .00083138  00000+0  48158-2 0  9998
2 53665  97.6040 335.0451 0002452  76.4776 283.6727 15.11836243196920
